STARLINK-30456          
1 57943U 23148J   26068.25869119 -.00000215  00000+0  48804-5 0  9996
2 57943  53.1621  26.4758 0001148 104.1180 255.9948 15.30190510138356
TEVEL2-3                
1 63218U 25052J   26068.64540225  .00020365  00000+0  69446-3 0  9991
2 63218  97.3994 324.7775 0004761 105.7353 254.4413 15.30377031 54855
